STARLINK-2663           
1 48443U 21040R   22118.47166793  .00000495  00000+0  52144-4 0  9994
2 48443  53.0582  36.8219 0001557  65.0387 295.0763 15.06400377 53928
STARLINK-2645           
1 48444U 21040S   22118.46797986  .00000885  00000+0  78281-4 0  9991
2 48444  53.0587  36.8459 0001685  62.7932 297.3228 15.06402580 53921
STARLINK-2634           
1 48445U 21040T   22118.46429319  .00002047  00000+0  15628-3 0  9991
2 48445  53.0566  36.8625 0001852  48.5201 311.5947 15.06407385 53926
STARLINK-2247           
1 48446U 21040U   22118.46060177  .00005075  00000+0  35921-3 0  9997
2 48446  53.0568  36.8753 0001639  60.9999 299.1154 15.06414931 53922
STARLINK-2269           
1 48447U 21040V   22118.19152947  .00001687  00000+0  13209-3 0  9995
2 48447  53.0574  38.0884 0001342  55.5109 304.6007 15.06406805 53888
STARLINK-2632           
1 48448U 21040W   22118.48178203  .00001961  00000+0  15050-3 0  9992
2 48448  53.0571  36.7832 0001690  62.6934 297.4227 15.06405394 53925
STARLINK-2655           
1 48449U 21040X   22118.12150551  .00002345  00000+0  17624-3 0  9996
2 48449  53.0559  38.3957 0001630  65.3912 294.7247 15.06401265 53877
STARLINK-2660           
1 48450U 21040Y   22118.18416165  .00002060  00000+0  15713-3 0  9991
2 48450  53.0584  38.1196 0001658  60.0542 300.0611 15.06406560 53881
STARLINK-2652           
1 48451U 21040Z   22118.18047619  .00002803  00000+0  20695-3 0  9996
2 48451  53.0561  38.1324 0001399  76.9835 283.1310 15.06403164 53887
STARLINK-2703           
1 48452U 21040AA  22118.18321630  .00002783  00000+0  20564-3 0  9997
2 48452  53.0563  38.1270 0001545  64.6578 295.4571 15.06398708 53883
STARLINK-2620           
1 48453U 21040AB  22118.50852467  .00005508  00000+0  38828-3 0  9991
2 48453  53.0569  36.6494 0001593  63.0401 297.0751 15.06412141 53934
STARLINK-2654           
1 48454U 21040AC  22118.17310608  .00008134  00000+0  56414-3 0  9990
2 48454  53.0549  38.1738 0001533  79.4664 280.6497 15.06414113 53887
STARLINK-2497           
1 48455U 21040AD  22118.50115592  .00002564  00000+0  19095-3 0  9998
2 48455  53.0562  36.6801 0001682  61.5429 298.5729 15.06406568 53929
STARLINK-2508           
1 48456U 21040AE  22118.49746742  .00008301  00000+0  57538-3 0  9993
2 48456  53.0560  36.7076 0001829  57.6263 302.4903 15.06410479 53923
STARLINK-2698           
1 48458U 21040AG  22118.50158392  .00003355  00000+0  24396-3 0  9995
2 48458  53.0566  41.6930 0001548  63.0163 297.0984 15.06412647 54572
STARLINK-2579           
1 48459U 21040AH  22118.26937931  .00008245  00000+0  57150-3 0  9990
2 48459  53.0550  42.7423 0001811  64.2388 295.8788 15.06415490 53835
STARLINK-2582           
1 48460U 21040AJ  22118.52096450  .00012841  00000+0  87901-3 0  9997
2 48460  53.0566  41.6103 0001623  65.1150 295.0008 15.06415016 54376
STARLINK-2693           
1 48461U 21040AK  22118.20397020  .00000958  00000+0  83185-4 0  9997
2 48461  53.0583  43.0251 0001970  52.4335 307.6833 15.06405257 55097
STARLINK-2683           
1 48462U 21040AL  22118.49191102  .00004107  00000+0  29437-3 0  9991
2 48462  53.0554  46.7157 0001721  58.7984 301.3173 15.06408445 53799
STARLINK-2689           
1 48463U 21040AM  22118.52508301  .00001986  00000+0  15213-3 0  9998
2 48463  53.0565  46.5908 0001532  56.9060 303.2076 15.06405999 53805
STARLINK-2686           
1 48464U 21040AN  22118.17218803  .00001345  00000+0  10915-3 0  9998
2 48464  53.0563  48.1722 0001549  59.5838 300.5304 15.06397463 53749
STARLINK-2681           
1 48465U 21040AP  22118.18324601  .00001212  00000+0  10027-3 0  9991
2 48465  53.0572  48.1259 0001566  64.3051 295.8100 15.06397910 53753
STARLINK-2687           
1 48466U 21040AQ  22118.50023003  .00006451  00000+0  45134-3 0  9997
2 48466  53.0565  46.7043 0001639  55.3025 304.8118 15.06417524 53803
STARLINK-2659           
1 48467U 21040AR  22118.52603228  .00006039  00000+0  42378-3 0  9992
2 48467  53.0552  46.5834 0001656  63.7622 296.3537 15.06414406 53807
STARLINK-2685           
1 48468U 21040AS  22118.50760279  .00010011  00000+0  68972-3 0  9994
2 48468  53.0567  46.6609 0001561  62.8200 297.2948 15.06414868 53800
STARLINK-2661           
1 48469U 21040AT  22118.52233989  .00001158  00000+0  96628-4 0  9992
2 48469  53.0575  46.6044 0001517  89.7107 270.4055 15.06408612 53800
STARLINK-2675           
1 48470U 21040AU  22118.18692585  .00003079  00000+0  22549-3 0  9991
2 48470  53.0568  48.1091 0001792  56.6824 303.4337 15.06408630 53740
STARLINK-2684           
1 48471U 21040AV  22118.51128266  .00001238  00000+0  10197-3 0  9990
2 48471  53.0552  46.6465 0001752  51.3243 308.7902 15.06410766 53799
STARLINK-2722           
1 48472U 21040AW  22118.49285488  .00001610  00000+0  12693-3 0  9995
2 48472  53.0573  46.7267 0001745  51.9381 308.1765 15.06407650 53783
STARLINK-2658           
1 48473U 21040AX  22118.52971811  .00001489  00000+0  11884-3 0  9997
2 48473  53.0548  46.5612 0002072  50.0567 310.0604 15.06403650 53799
STARLINK-2697           
1 48474U 21040AY  22118.49654612  .00002454  00000+0  18352-3 0  9991
2 48474  53.0562  46.7077 0001588  67.4379 292.6777 15.06407098 53782
STARLINK-2619           
1 48475U 21040AZ  22118.53339876  .00001139  00000+0  95341-4 0  9992
2 48475  53.0565  46.5545 0001845  49.2657 310.8492 15.06407296 53795
STARLINK-2723           
1 48476U 21040BA  22118.48917290  .00004118  00000+0  29510-3 0  9993
2 48476  53.0558  46.7355 0001667  71.3752 288.7418 15.06411746 53788
STARLINK-2728           
1 48478U 21040BC  22118.27538743  .00002152  00000+0  16329-3 0  9994
2 48478  53.0564  47.7136 0001739  59.0497 301.0663 15.06406700 53756
STARLINK-2755           
1 48479U 21040BD  22118.53709005  .00003818  00000+0  27500-3 0  9998
2 48479  53.0549  46.5351 0001718  71.2677 288.8498 15.06408309 53798
STARLINK-2690           
1 48480U 21040BE  22118.55090906  .00011964  00000+0  82021-3 0  9995
2 48480  53.0558  56.4678 0001791  50.7507 309.3640 15.06421493 53659
STARLINK-2706           
1 48481U 21040BF  22118.56469906  .00002792  00000+0  20618-3 0  9990
2 48481  53.0561  56.4083 0001712  55.7827 304.3324 15.06414911 53658
STARLINK-2525           
1 48482U 21040BG  22118.22655747  .00003847  00000+0  27697-3 0  9990
2 48482  53.0568  57.9332 0001696  58.8950 301.2205 15.06406150 53606
STARLINK-2531           
1 48483U 21040BH  22118.55459685  .00004472  00000+0  31884-3 0  9998
2 48483  53.0565  56.4594 0001859  39.9653 320.1472 15.06411993 53651
STARLINK-2696           
1 48484U 21040BJ  22118.53153491  .00004232  00000+0  30279-3 0  9994
2 48484  53.0562  56.5507 0001813  60.8556 299.2614 15.06409493 53655
STARLINK-2500           
1 48485U 21040BK  22118.56197099  .00015311  00000+0  10443-2 0  9990
2 48485  53.0561  56.4227 0001798  70.5780 289.5403 15.06408984 53654
STARLINK-2496           
1 48486U 21040BL  22118.56565271  .00004757  00000+0  33788-3 0  9992
2 48486  53.0562  56.4085 0001887  44.8995 315.2146 15.06415629 53654
STARLINK-2494           
1 48487U 21040BM  22118.10490963  .00001796  00000+0  13940-3 0  9996
2 48487  53.0547  58.4736 0001675  46.9557 313.1572 15.06407518 53596
STARLINK-2063           
1 48553U 21041A   22118.34726855  .00001405  00000+0  11323-3 0  9999
2 48553  53.0550 347.3931 0001680  86.0607 274.0574 15.06401992 52482
STARLINK-2139           
1 48554U 21041B   22118.35463798  .00005000  00000+0  35422-3 0  9996
2 48554  53.0558 347.3551 0001283  97.8758 262.2377 15.06410517 52488
STARLINK-2145           
1 48555U 21041C   22118.38320629  .00003158  00000+0  23077-3 0  9990
2 48555  53.0556 357.2261 0001584  69.0817 291.0342 15.06406392 52349
STARLINK-2151           
1 48556U 21041D   22118.37214608  .00006173  00000+0  43277-3 0  9993
2 48556  53.0558 357.2783 0001418  73.0271 287.0873 15.06412691 52349
STARLINK-2155           
1 48557U 21041E   22117.97867594  .00009158  00000+0  63267-3 0  9994
2 48557  53.0539 349.0476 0001421  82.7609 277.3541 15.06415493 52429
STARLINK-2166           
1 48558U 21041F   22118.37306448  .00004370  00000+0  31197-3 0  9994
2 48558  53.0555 347.2684 0001359  86.4027 273.7117 15.06409892 51620
STARLINK-2167           
1 48559U 21041G   22118.47531565 -.00003596  00000+0 -22246-3 0  9992
2 48559  53.0557 346.7978 0001369  64.6564 295.4566 15.06432084 52492
STARLINK-2186           
1 48561U 21041J   22118.58334491 -.00012479  00000+0 -81986-3 0  9992
2 48561  53.0527 316.3239 0001352  97.0481 194.1661 15.06421492  3594
STARLINK-2187           
1 48562U 21041K   22118.35095643  .00000521  00000+0  53850-4 0  9994
2 48562  53.0562 347.3662 0001601  86.4628 273.6544 15.06397895 52484
STARLINK-2188           
1 48563U 21041L   22118.36938350  .00003504  00000+0  25396-3 0  9994
2 48563  53.0536 347.2931 0001423  73.3375 286.7770 15.06405462 52486
STARLINK-2190           
1 48564U 21041M   22118.36201088  .00001769  00000+0  13761-3 0  9990
2 48564  53.0563 347.3243 0001372  78.8259 281.2884 15.06405005 52487
STARLINK-2191           
1 48565U 21041N   22118.35832426  .00001156  00000+0  96521-4 0  9992
2 48565  53.0550 347.3394 0001455  84.2960 275.8195 15.06400025 52484
STARLINK-2214           
1 48566U 21041P   22118.38225971  .00003894  00000+0  28011-3 0  9996
2 48566  53.0552 357.2268 0001534  73.8332 286.2826 15.06410900 52347
STARLINK-2215           
1 48567U 21041Q   22118.39426399  .00006508  00000+0  45535-3 0  9990
2 48567  53.0559 357.1705 0001365  74.5539 285.5600 15.06405883 52345
STARLINK-2217           
1 48568U 21041R   22118.07451507  .00006731  00000+0  47024-3 0  9998
2 48568  53.0553 348.6127 0001769  88.0083 272.1109 15.06408563 52439
STARLINK-2219           
1 48569U 21041S   22118.49838922  .00004563  00000+0  32489-3 0  9995
2 48569  53.0536 346.7166 0001508  73.2675 286.8480 15.06415892 52502
